IRIDIUM 921             
1 24873U 97034E   24138.48844753  .00043224  00000+0  11776-2 0  9996
2 24873  86.3789 303.2982 0003843  32.7765 327.3725 15.37302175470466
IRIDIUM 26              
1 24903U 97043A   24138.46791479  .00001237  00000+0  41625-3 0  9999
2 24903  86.3931 276.6464 0002022  87.2027 272.9401 14.36353231399925
IRIDIUM 22              
1 24907U 97043E   24138.63925748  .00001210  00000+0  41649-3 0  9997
2 24907  86.3932 279.7893 0002164  92.5631 267.5813 14.35243645400024
DUMMY MASS 2            
1 24926U 97048B   24138.52261102  .00001110  00000+0  12394-3 0  9992
2 24926  86.3318 319.7052 0009755 112.9248 247.3007 14.85954461446132
IRIDIUM 29              
1 24944U 97051A   24138.51225547  .00001107  00000+0  37674-3 0  9992
2 24944  86.3922 309.7728 0002386  92.1404 268.0065 14.35691529396482
IRIDIUM 33              
1 24946U 97051C   24138.51025466  .00000806  00000+0  28007-3 0  9997
2 24946  86.3837 309.0269 0005927 297.2301  62.8291 14.34353216396017
IRIDIUM 28              
1 24948U 97051E   24138.46683952  .00001167  00000+0  39026-3 0  9997
2 24948  86.3926 307.5325 0001811  82.4343 277.7060 14.36643280397019
